{"fetched_at":"2026-07-17T17:38:19.080Z","source":"https://celestrak.org/NORAD/elements/gp.php?NAME=HULIANWANG&FORMAT=JSON","constellation":"guowang","records":[{"OBJECT_NAME":"HULIANWANG DIGUI-124","OBJECT_ID":"2025-295F","EPOCH":"2026-07-17T06:16:59.355840","CLASSIFICATION_TYPE":"U","MEAN_MOTION":13.29329299,"ECCENTRICITY":0.00011118,"INCLINATION":49.9997,"RA_OF_ASC_NODE":277.4785,"ARG_OF_PERICENTER":199.3077,"MEAN_ANOMALY":160.7754,"EPHEMERIS_TYPE":0,"NORAD_CAT_ID":67064,"ELEMENT_SET_NO":999,"REV_AT_EPOCH":2950,"BSTAR":0.000090295997,"MEAN_MOTION_DOT":-8.2e-7,"MEAN_MOTION_DDOT":0},{"OBJECT_NAME":"HULIANWANG DIGUI-125","OBJECT_ID":"2025-295G","EPOCH":"2026-07-17T06:04:51.849696","CLASSIFICATION_TYPE":"U","MEAN_MOTION":13.29329997,"ECCENTRICITY":0.00010879,"INCLINATION":49.999,"RA_OF_ASC_NODE":277.4183,"ARG_OF_PERICENTER":197.5194,"MEAN_ANOMALY":162.5641,"EPHEMERIS_TYPE":0,"NORAD_CAT_ID":67065,"ELEMENT_SET_NO":999,"REV_AT_EPOCH":2950,"BSTAR":0.000094940009,"MEAN_MOTION_DOT":-8e-7,"MEAN_MOTION_DDOT":0},{"OBJECT_NAME":"HULIANWANG DIGUI-126","OBJECT_ID":"2025-295H","EPOCH":"2026-07-17T04:04:32.215584","CLASSIFICATION_TYPE":"U","MEAN_MOTION":13.29322842,"ECCENTRICITY":0.00011317,"INCLINATION":49.9992,"RA_OF_ASC_NODE":277.6486,"ARG_OF_PERICENTER":194.0431,"MEAN_ANOMALY":166.041,"EPHEMERIS_TYPE":0,"NORAD_CAT_ID":67066,"ELEMENT_SET_NO":999,"REV_AT_EPOCH":2949,"BSTAR":0.00007675873,"MEAN_MOTION_DOT":-8.8e-7,"MEAN_MOTION_DDOT":0},{"OBJECT_NAME":"HULIANWANG DIGUI-127","OBJECT_ID":"2025-295J","EPOCH":"2026-07-17T05:40:41.168640","CLASSIFICATION_TYPE":"U","MEAN_MOTION":13.29331063,"ECCENTRICITY":0.00011353,"INCLINATION":50.0007,"RA_OF_ASC_NODE":277.3698,"ARG_OF_PERICENTER":197.2101,"MEAN_ANOMALY":162.8733,"EPHEMERIS_TYPE":0,"NORAD_CAT_ID":67067,"ELEMENT_SET_NO":999,"REV_AT_EPOCH":2950,"BSTAR":0.000078992878,"MEAN_MOTION_DOT":-8.7e-7,"MEAN_MOTION_DDOT":0},{"OBJECT_NAME":"HULIANWANG DIGUI-128","OBJECT_ID":"2025-311A","EPOCH":"2026-07-16T15:46:26.897664","CLASSIFICATION_TYPE":"U","MEAN_MOTION":13.29323798,"ECCENTRICITY":0.00009314,"INCLINATION":50.0099,"RA_OF_ASC_NODE":9.8635,"ARG_OF_PERICENTER":80.3769,"MEAN_ANOMALY":279.7209,"EPHEMERIS_TYPE":0,"NORAD_CAT_ID":67236,"ELEMENT_SET_NO":999,"REV_AT_EPOCH":2726,"BSTAR":0.000009284642,"MEAN_MOTION_DOT":-0.0000012,"MEAN_MOTION_DDOT":0},{"OBJECT_NAME":"HULIANWANG DIGUI-129","OBJECT_ID":"2025-311B","EPOCH":"2026-07-16T19:34:53.347008","CLASSIFICATION_TYPE":"U","MEAN_MOTION":13.29324994,"ECCENTRICITY":0.00008716,"INCLINATION":50.0089,"RA_OF_ASC_NODE":9.3489,"ARG_OF_PERICENTER":82.1325,"MEAN_ANOMALY":277.9646,"EPHEMERIS_TYPE":0,"NORAD_CAT_ID":67237,"ELEMENT_SET_NO":999,"REV_AT_EPOCH":2728,"BSTAR":0.000013395733,"MEAN_MOTION_DOT":-0.00000118,"MEAN_MOTION_DDOT":0},{"OBJECT_NAME":"HULIANWANG DIGUI-130","OBJECT_ID":"2025-311C","EPOCH":"2026-07-16T17:10:37.936704","CLASSIFICATION_TYPE":"U","MEAN_MOTION":13.29323619,"ECCENTRICITY":0.0000958,"INCLINATION":50.0069,"RA_OF_ASC_NODE":10.1099,"ARG_OF_PERICENTER":79.9376,"MEAN_ANOMALY":280.1604,"EPHEMERIS_TYPE":0,"NORAD_CAT_ID":67238,"ELEMENT_SET_NO":999,"REV_AT_EPOCH":2726,"BSTAR":0.000007842833,"MEAN_MOTION_DOT":-0.0000012,"MEAN_MOTION_DDOT":0},{"OBJECT_NAME":"HULIANWANG DIGUI-131","OBJECT_ID":"2025-311D","EPOCH":"2026-07-16T22:47:27.328704","CLASSIFICATION_TYPE":"U","MEAN_MOTION":13.29323462,"ECCENTRICITY":0.00009836,"INCLINATION":50.0065,"RA_OF_ASC_NODE":9.3367,"ARG_OF_PERICENTER":79.8191,"MEAN_ANOMALY":280.2792,"EPHEMERIS_TYPE":0,"NORAD_CAT_ID":67239,"ELEMENT_SET_NO":999,"REV_AT_EPOCH":2729,"BSTAR":0.000014330221,"MEAN_MOTION_DOT":-0.00000117,"MEAN_MOTION_DDOT":0},{"OBJECT_NAME":"HULIANWANG DIGUI-132","OBJECT_ID":"2025-311E","EPOCH":"2026-07-16T20:23:03.672384","CLASSIFICATION_TYPE":"U","MEAN_MOTION":13.29324205,"ECCENTRICITY":0.0000927,"INCLINATION":50.0077,"RA_OF_ASC_NODE":9.4977,"ARG_OF_PERICENTER":77.198,"MEAN_ANOMALY":282.8996,"EPHEMERIS_TYPE":0,"NORAD_CAT_ID":67240,"ELEMENT_SET_NO":999,"REV_AT_EPOCH":2728,"BSTAR":0.000034804563,"MEAN_MOTION_DOT":-0.00000108,"MEAN_MOTION_DDOT":0},{"OBJECT_NAME":"HULIANWANG DIGUI-133","OBJECT_ID":"2025-311F","EPOCH":"2026-07-17T05:00:20.118816","CLASSIFICATION_TYPE":"U","MEAN_MOTION":13.29324163,"ECCENTRICITY":0.0000904,"INCLINATION":50.0123,"RA_OF_ASC_NODE":8.1382,"ARG_OF_PERICENTER":80.624,"MEAN_ANOMALY":279.4735,"EPHEMERIS_TYPE":0,"NORAD_CAT_ID":67241,"ELEMENT_SET_NO":999,"REV_AT_EPOCH":2733,"BSTAR":0.000018153863,"MEAN_MOTION_DOT":-0.00000116,"MEAN_MOTION_DDOT":0},{"OBJECT_NAME":"HULIANWANG DIGUI-134","OBJECT_ID":"2025-311G","EPOCH":"2026-07-17T05:12:19.104192","CLASSIFICATION_TYPE":"U","MEAN_MOTION":13.29323899,"ECCENTRICITY":0.00009279,"INCLINATION":50.0051,"RA_OF_ASC_NODE":8.0646,"ARG_OF_PERICENTER":79.4892,"MEAN_ANOMALY":280.6084,"EPHEMERIS_TYPE":0,"NORAD_CAT_ID":67242,"ELEMENT_SET_NO":999,"REV_AT_EPOCH":2733,"BSTAR":0.000020508758,"MEAN_MOTION_DOT":-0.00000115,"MEAN_MOTION_DDOT":0},{"OBJECT_NAME":"HULIANWANG DIGUI-135","OBJECT_ID":"2025-311H","EPOCH":"2026-07-16T20:35:05.343936","CLASSIFICATION_TYPE":"U","MEAN_MOTION":13.29323668,"ECCENTRICITY":0.00009404,"INCLINATION":50.0037,"RA_OF_ASC_NODE":9.4748,"ARG_OF_PERICENTER":80.673,"MEAN_ANOMALY":279.4248,"EPHEMERIS_TYPE":0,"NORAD_CAT_ID":67243,"ELEMENT_SET_NO":999,"REV_AT_EPOCH":2728,"BSTAR":0.00001936524,"MEAN_MOTION_DOT":-0.00000115,"MEAN_MOTION_DDOT":0},{"OBJECT_NAME":"HULIANWANG DIGUI-136","OBJECT_ID":"2025-311J","EPOCH":"2026-07-16T16:10:26.002848","CLASSIFICATION_TYPE":"U","MEAN_MOTION":13.29324603,"ECCENTRICITY":0.00008693,"INCLINATION":50.0109,"RA_OF_ASC_NODE":9.9619,"ARG_OF_PERICENTER":80.8025,"MEAN_ANOMALY":279.2946,"EPHEMERIS_TYPE":0,"NORAD_CAT_ID":67244,"ELEMENT_SET_NO":999,"REV_AT_EPOCH":2726,"BSTAR":0.00002902258,"MEAN_MOTION_DOT":-0.00000111,"MEAN_MOTION_DDOT":0},{"OBJECT_NAME":"HULIANWANG DIGUI-137","OBJECT_ID":"2026-007A","EPOCH":"2026-07-16T18:38:16.259712","CLASSIFICATION_TYPE":"U","MEAN_MOTION":13.29326983,"ECCENTRICITY":0.00008982,"INCLINATION":50.0098,"RA_OF_ASC_NODE":339.736,"ARG_OF_PERICENTER":119.5058,"MEAN_ANOMALY":240.5904,"EPHEMERIS_TYPE":0,"NORAD_CAT_ID":67435,"ELEMENT_SET_NO":999,"REV_AT_EPOCH":2472,"BSTAR":0.000028067435,"MEAN_MOTION_DOT":-0.00000111,"MEAN_MOTION_DDOT":0},{"OBJECT_NAME":"HULIANWANG DIGUI-138","OBJECT_ID":"2026-007B","EPOCH":"2026-07-16T15:25:51.595392","CLASSIFICATION_TYPE":"U","MEAN_MOTION":13.29325338,"ECCENTRICITY":0.0000887,"INCLINATION":50.0077,"RA_OF_ASC_NODE":340.3306,"ARG_OF_PERICENTER":120.637,"MEAN_ANOMALY":239.459,"EPHEMERIS_TYPE":0,"NORAD_CAT_ID":67436,"ELEMENT_SET_NO":999,"REV_AT_EPOCH":2470,"BSTAR":0.00000890407,"MEAN_MOTION_DOT":-0.0000012,"MEAN_MOTION_DDOT":0},{"OBJECT_NAME":"HULIANWANG DIGUI-139","OBJECT_ID":"2026-007C","EPOCH":"2026-07-16T13:25:19.355520","CLASSIFICATION_TYPE":"U","MEAN_MOTION":13.29328321,"ECCENTRICITY":0.000088,"INCLINATION":50.0049,"RA_OF_ASC_NODE":340.5118,"ARG_OF_PERICENTER":107.7737,"MEAN_ANOMALY":252.3231,"EPHEMERIS_TYPE":0,"NORAD_CAT_ID":67437,"ELEMENT_SET_NO":999,"REV_AT_EPOCH":2469,"BSTAR":0.000017240469,"MEAN_MOTION_DOT":-0.00000116,"MEAN_MOTION_DDOT":0}]}
