HULIANWANG DIGUI-124    
1 67064U 25295F   26198.26179810 -.00000082  00000+0  90296-4 0  9996
2 67064  49.9997 277.4785 0001111 199.3077 160.7754 13.29329299 29507
HULIANWANG DIGUI-125    
1 67065U 25295G   26198.25337789 -.00000080  00000+0  94940-4 0  9995
2 67065  49.9990 277.4183 0001087 197.5194 162.5641 13.29329997 29505
HULIANWANG DIGUI-126    
1 67066U 25295H   26198.16981731 -.00000088  00000+0  76759-4 0  9994
2 67066  49.9992 277.6486 0001131 194.0431 166.0410 13.29322842 29495
HULIANWANG DIGUI-127    
1 67067U 25295J   26198.23658760 -.00000087  00000+0  78993-4 0  9997
2 67067  50.0007 277.3698 0001135 197.2101 162.8733 13.29331063 29500
HULIANWANG DIGUI-128    
1 67236U 25311A   26197.65725576 -.00000120  00000+0  92846-5 0  9991
2 67236  50.0099   9.8635 0000931  80.3769 279.7209 13.29323798 27266
HULIANWANG DIGUI-129    
1 67237U 25311B   26197.81589522 -.00000118  00000+0  13396-4 0  9998
2 67237  50.0089   9.3489 0000871  82.1325 277.9646 13.29324994 27285
HULIANWANG DIGUI-130    
1 67238U 25311C   26197.71571686 -.00000120  00000+0  78428-5 0  9991
2 67238  50.0069  10.1099 0000958  79.9376 280.1604 13.29323619 27268
HULIANWANG DIGUI-131    
1 67239U 25311D   26197.94962186 -.00000117  00000+0  14330-4 0  9993
2 67239  50.0065   9.3367 0000983  79.8191 280.2792 13.29323462 27293
HULIANWANG DIGUI-132    
1 67240U 25311E   26197.84934806 -.00000108  00000+0  34805-4 0  9991
2 67240  50.0077   9.4977 0000927  77.1980 282.8996 13.29324205 27280
HULIANWANG DIGUI-133    
1 67241U 25311F   26198.20856619 -.00000116  00000+0  18154-4 0  9996
2 67241  50.0123   8.1382 0000904  80.6240 279.4735 13.29324163 27334
HULIANWANG DIGUI-134    
1 67242U 25311G   26198.21688778 -.00000115  00000+0  20509-4 0  9993
2 67242  50.0051   8.0646 0000927  79.4892 280.6084 13.29323899 27337
HULIANWANG DIGUI-135    
1 67243U 25311H   26197.85770074 -.00000115  00000+0  19365-4 0  9992
2 67243  50.0037   9.4748 0000940  80.6730 279.4248 13.29323668 27286
HULIANWANG DIGUI-136    
1 67244U 25311J   26197.67391207 -.00000111  00000+0  29023-4 0  9998
2 67244  50.0109   9.9619 0000869  80.8025 279.2946 13.29324603 27269
HULIANWANG DIGUI-137    
1 67435U 26007A   26197.77657708 -.00000111  00000+0  28067-4 0  9992
2 67435  50.0098 339.7360 0000898 119.5058 240.5904 13.29326983 24729
HULIANWANG DIGUI-138    
1 67436U 26007B   26197.64295828 -.00000120  00000+0  89041-5 0  9990
2 67436  50.0077 340.3306 0000887 120.6370 239.4590 13.29325338 24702
HULIANWANG DIGUI-139    
1 67437U 26007C   26197.55925180 -.00000116  00000+0  17240-4 0  9998
2 67437  50.0049 340.5118 0000880 107.7737 252.3231 13.29328321 24690
